{"type": "FeatureCollection", "features": [ {"type": "Feature", "properties": {"norad_id": 66416, "name": "HULIANWANG DIGUI 13E", "group": "last-30-days", "lat": 35.84097644921248, "lon": 79.5552030842501, "alt_km": 817.036518252964, "timestamp": "2025-12-04T10:51:48.875194+00:00", "meta": {"OBJECT_NAME": "HULIANWANG DIGUI 13E", "OBJECT_ID": "2025-258E", "EPOCH": "2025-12-02T04:20:20.565312", "MEAN_MOTION": 14.23468154, "ECCENTRICITY": 0.0012751, "INCLINATION": 50.0045, "RA_OF_ASC_NODE": 306.4445, "ARG_OF_PERICENTER": 327.4493, "MEAN_ANOMALY": 32.5632, "EPHEMERIS_TYPE": 0, "CLASSIFICATION_TYPE": "U", "NORAD_CAT_ID": 66416, "ELEMENT_SET_NO": 999, "REV_AT_EPOCH": 315, "BSTAR": 0.00010445686, "MEAN_MOTION_DOT": 8e-07, "MEAN_MOTION_DDOT": 0}, "tle": {"line1": "1 66416U 25258E   25336.18079358  .00000080  00000+0  10446-3 0  9990", "line2": "2 66416  50.0045 306.4445 0012751 327.4493  32.5632 14.23468154  3151"}}, "geometry": {"type": "Point", "coordinates": [79.5552030842501, 35.84097644921248]}}, {"type": "Feature", "properties": {"norad_id": 66417, "name": "HULIANWANG DIGUI 13F", "group": "last-30-days", "lat": 31.411876033306655, "lon": 86.00210621800264, "alt_km": 817.9326667547366, "timestamp": "2025-12-04T10:51:48.875207+00:00", "meta": {"OBJECT_NAME": "HULIANWANG DIGUI 13F", "OBJECT_ID": "2025-258F", "EPOCH": "2025-12-04T00:06:47.750976", "MEAN_MOTION": 14.23478038, "ECCENTRICITY": 0.00123539, "INCLINATION": 49.9996, "RA_OF_ASC_NODE": 298.7354, "ARG_OF_PERICENTER": 331.9659, "MEAN_ANOMALY": 28.0587, "EPHEMERIS_TYPE": 0, "CLASSIFICATION_TYPE": "U", "NORAD_CAT_ID": 66417, "ELEMENT_SET_NO": 999, "REV_AT_EPOCH": 341, "BSTAR": 0.00015360842, "MEAN_MOTION_DOT": 1.92e-06, "MEAN_MOTION_DDOT": 0}, "tle": {"line1": "1 66417U 25258F   25338.00471934  .00000192  00000+0  15361-3 0  9995", "line2": "2 66417  49.9996 298.7354 0012353 331.9659  28.0587 14.23478038  3418"}}, "geometry": {"type": "Point", "coordinates": [86.00210621800264, 31.411876033306655]}}, {"type": "Feature", "properties": {"norad_id": 66418, "name": "HULIANWANG DIGUI 13G", "group": "last-30-days", "lat": 16.222974710940463, "lon": 102.67123086080184, "alt_km": 820.6262184688194, "timestamp": "2025-12-04T10:51:48.875217+00:00", "meta": {"OBJECT_NAME": "HULIANWANG DIGUI 13G", "OBJECT_ID": "2025-258G", "EPOCH": "2025-12-04T00:00:45.067104", "MEAN_MOTION": 14.23489611, "ECCENTRICITY": 0.00124642, "INCLINATION": 50.0013, "RA_OF_ASC_NODE": 298.7141, "ARG_OF_PERICENTER": 327.8506, "MEAN_ANOMALY": 32.1645, "EPHEMERIS_TYPE": 0, "CLASSIFICATION_TYPE": "U", "NORAD_CAT_ID": 66418, "ELEMENT_SET_NO": 999, "REV_AT_EPOCH": 341, "BSTAR": 0.0001538293, "MEAN_MOTION_DOT": 1.93e-06, "MEAN_MOTION_DDOT": 0}, "tle": {"line1": "1 66418U 25258G   25338.00052161  .00000193  00000+0  15383-3 0  9998", "line2": "2 66418  50.0013 298.7141 0012464 327.8506  32.1645 14.23489611  3414"}}, "geometry": {"type": "Point", "coordinates": [102.67123086080184, 16.222974710940463]}}, {"type": "Feature", "properties": {"norad_id": 66419, "name": "HULIANWANG DIGUI 13H", "group": "last-30-days", "lat": 10.486686119530155, "lon": 107.85347637154526, "alt_km": 820.9839706235734, "timestamp": "2025-12-04T10:51:48.875229+00:00", "meta": {"OBJECT_NAME": "HULIANWANG DIGUI 13H", "OBJECT_ID": "2025-258H", "EPOCH": "2025-12-03T23:58:36.617088", "MEAN_MOTION": 14.23506726, "ECCENTRICITY": 0.00121226, "INCLINATION": 50.0008, "RA_OF_ASC_NODE": 298.7034, "ARG_OF_PERICENTER": 329.1039, "MEAN_ANOMALY": 30.9159, "EPHEMERIS_TYPE": 0, "CLASSIFICATION_TYPE": "U", "NORAD_CAT_ID": 66419, "ELEMENT_SET_NO": 999, "REV_AT_EPOCH": 341, "BSTAR": 0.00015047502, "MEAN_MOTION_DOT": 1.85e-06, "MEAN_MOTION_DDOT": 0}, "tle": {"line1": "1 66419U 25258H   25337.99903492  .00000185  00000+0  15048-3 0  9997", "line2": "2 66419  50.0008 298.7034 0012122 329.1039  30.9159 14.23506726  3410"}}, "geometry": {"type": "Point", "coordinates": [107.85347637154526, 10.486686119530155]}}, {"type": "Feature", "properties": {"norad_id": 66420, "name": "HULIANWANG DIGUI 13J", "group": "last-30-days", "lat": 6.0486469204572, "lon": 111.68979471840605, "alt_km": 821.3066968162666, "timestamp": "2025-12-04T10:51:48.875239+00:00", "meta": {"OBJECT_NAME": "HULIANWANG DIGUI 13J", "OBJECT_ID": "2025-258J", "EPOCH": "2025-12-03T23:56:57.746112", "MEAN_MOTION": 14.23474226, "ECCENTRICITY": 0.00114469, "INCLINATION": 50.0022, "RA_OF_ASC_NODE": 298.7077, "ARG_OF_PERICENTER": 336.0431, "MEAN_ANOMALY": 23.9948, "EPHEMERIS_TYPE": 0, "CLASSIFICATION_TYPE": "U", "NORAD_CAT_ID": 66420, "ELEMENT_SET_NO": 999, "REV_AT_EPOCH": 340, "BSTAR": 0.0001473895, "MEAN_MOTION_DOT": 1.78e-06, "MEAN_MOTION_DDOT": 0}, "tle": {"line1": "1 66420U 25258J   25337.99789058  .00000178  00000+0  14739-3 0  9997", "line2": "2 66420  50.0022 298.7077 0011446 336.0431  23.9948 14.23474226  3402"}}, "geometry": {"type": "Point", "coordinates": [111.68979471840605, 6.0486469204572]}}, {"type": "Feature", "properties": {"norad_id": 66421, "name": "CZ-12 R/B", "group": "last-30-days", "lat": -43.094346386087764, "lon": 165.68812206406923, "alt_km": 712.791840088601, "timestamp": "2025-12-04T10:51:48.875249+00:00", "meta": {"OBJECT_NAME": "CZ-12 R/B", "OBJECT_ID": "2025-258K", "EPOCH": "2025-12-03T23:45:48.036384", "MEAN_MOTION": 14.423167, "ECCENTRICITY": 0.00645689, "INCLINATION": 49.9964, "RA_OF_ASC_NODE": 295.913, "ARG_OF_PERICENTER": 217.9673, "MEAN_ANOMALY": 141.6687, "EPHEMERIS_TYPE": 0, "CLASSIFICATION_TYPE": "U", "NORAD_CAT_ID": 66421, "ELEMENT_SET_NO": 999, "REV_AT_EPOCH": 345, "BSTAR": 4.0078124e-05, "MEAN_MOTION_DOT": -3.4e-07, "MEAN_MOTION_DDOT": 0}, "tle": {"line1": "1 66421U 25258K   25337.99013931 -.00000034  00000+0  40078-4 0  9996", "line2": "2 66421  49.9964 295.9130 0064568 217.9673 141.6687 14.42316700  3458"}}, "geometry": {"type": "Point", "coordinates": [165.68812206406923, -43.094346386087764]}}, {"type": "Feature", "properties": {"norad_id": 66422, "name": "STARLINK-35617", "group": "last-30-days", "lat": 1.2988923870358766, "lon": 97.25753896467424, "alt_km": 435.7937700970642, "timestamp": "2025-12-04T10:51:48.875276+00:00", "meta": {"OBJECT_NAME": "STARLINK-35617", "OBJECT_ID": "2025-259A", "EPOCH": "2025-12-04T04:00:03.000096", "MEAN_MOTION": 15.4460319, "ECCENTRICITY": 0.0001253, "INCLINATION": 43.0004, "RA_OF_ASC_NODE": 97.5196, "ARG_OF_PERICENTER": 272.9018, "MEAN_ANOMALY": 297.8083, "EPHEMERIS_TYPE": 0, "CLASSIFICATION_TYPE": "U", "NORAD_CAT_ID": 66422, "ELEMENT_SET_NO": 999, "REV_AT_EPOCH": 490, "BSTAR": -0.048237, "MEAN_MOTION_DOT": -0.020433, "MEAN_MOTION_DDOT": 0}, "tle": {"line1": "1 66422U 25259A   25338.16670139 -.02043300  00000+0 -48237-1 0  9995", "line2": "2 66422  43.0004  97.5196 0001253 272.9018 297.8083 15.44603190  4903"}}, "geometry": {"type": "Point", "coordinates": [97.25753896467424, 1.2988923870358766]}}, {"type": "Feature", "properties": {"norad_id": 66423, "name": "STARLINK-35618", "group": "last-30-days", "lat": 7.371738199536611, "lon": 103.82147932635387, "alt_km": 431.1969890189748, "timestamp": "2025-12-04T10:51:48.875288+00:00", "meta": {"OBJECT_NAME": "STARLINK-35618", "OBJECT_ID": "2025-259B", "EPOCH": "2025-12-04T04:00:03.000096", "MEAN_MOTION": 15.45928941, "ECCENTRICITY": 0.0001277, "INCLINATION": 43.0006, "RA_OF_ASC_NODE": 97.5007, "ARG_OF_PERICENTER": 271.9455, "MEAN_ANOMALY": 306.3321, "EPHEMERIS_TYPE": 0, "CLASSIFICATION_TYPE": "U", "NORAD_CAT_ID": 66423, "ELEMENT_SET_NO": 999, "REV_AT_EPOCH": 490, "BSTAR": -0.045834, "MEAN_MOTION_DOT": -0.02033816, "MEAN_MOTION_DDOT": 0}, "tle": {"line1": "1 66423U 25259B   25338.16670139 -.02033816  00000+0 -45834-1 0  9997", "line2": "2 66423  43.0006  97.5007 0001277 271.9455 306.3321 15.45928941  4903"}}, "geometry": {"type": "Point", "coordinates": [103.82147932635387, 7.371738199536611]}}, {"type": "Feature", "properties": {"norad_id": 66424, "name": "STARLINK-35588", "group": "last-30-days", "lat": 12.408785185087122, "lon": 109.48009613799009, "alt_km": 426.7639599444183, "timestamp": "2025-12-04T10:51:48.875299+00:00", "meta": {"OBJECT_NAME": "STARLINK-35588", "OBJECT_ID": "2025-259C", "EPOCH": "2025-12-04T04:00:03.000096", "MEAN_MOTION": 15.47283801, "ECCENTRICITY": 0.0001312, "INCLINATION": 43.0005, "RA_OF_ASC_NODE": 97.4859, "ARG_OF_PERICENTER": 268.3276, "MEAN_ANOMALY": 316.0892, "EPHEMERIS_TYPE": 0, "CLASSIFICATION_TYPE": "U", "NORAD_CAT_ID": 66424, "ELEMENT_SET_NO": 999, "REV_AT_EPOCH": 490, "BSTAR": -0.044838, "MEAN_MOTION_DOT": -0.02080215, "MEAN_MOTION_DDOT": 0}, "tle": {"line1": "1 66424U 25259C   25338.16670139 -.02080215  00000+0 -44838-1 0  9996", "line2": "2 66424  43.0005  97.4859 0001312 268.3276 316.0892 15.47283801  4900"}}, "geometry": {"type": "Point", "coordinates": [109.48009613799009, 12.408785185087122]}}, {"type": "Feature", "properties": {"norad_id": 66425, "name": "STARLINK-35555", "group": "last-30-days", "lat": 16.407479020530882, "lon": 114.2265635035637, "alt_km": 422.4420464432733, "timestamp": "2025-12-04T10:51:48.875313+00:00", "meta": {"OBJECT_NAME": "STARLINK-35555", "OBJECT_ID": "2025-259D", "EPOCH": "2025-12-04T04:00:03.000096", "MEAN_MOTION": 15.48608008, "ECCENTRICITY": 0.000146, "INCLINATION": 43.0004, "RA_OF_ASC_NODE": 97.4724, "ARG_OF_PERICENTER": 265.7494, "MEAN_ANOMALY": 323.3957, "EPHEMERIS_TYPE": 0, "CLASSIFICATION_TYPE": "U", "NORAD_CAT_ID": 66425, "ELEMENT_SET_NO": 999, "REV_AT_EPOCH": 490, "BSTAR": -0.042519, "MEAN_MOTION_DOT": -0.02068506, "MEAN_MOTION_DDOT": 0}, "tle": {"line1": "1 66425U 25259D   25338.16670139 -.02068506  00000+0 -42519-1 0  9990", "line2": "2 66425  43.0004  97.4724 0001460 265.7494 323.3957 15.48608008  4902"}}, "geometry": {"type": "Point", "coordinates": [114.2265635035637, 16.407479020530882]}}]}